{
  "type": "FeatureCollection",
  "features": [
    {
      "type": "Feature",
      "properties": {
        "norad_id": 66917,
        "name": "HULIANWANG DIGUI-107",
        "group": "last-30-days",
        "lat": -49.731153482004665,
        "lon": 27.106147889205857,
        "alt_km": 873.6986297097856,
        "timestamp": "2025-12-10T21:43:20.863945+00:00",
        "meta_object_name": "HULIANWANG DIGUI-107",
        "meta_object_id": "2025-285C",
        "meta_epoch": "2025-12-10T15:20:49.298208",
        "meta_mean_motion": 14.05578852,
        "meta_eccentricity": 0.00075384,
        "meta_inclination": 50.0009,
        "meta_ra_of_asc_node": 125.8355,
        "meta_arg_of_pericenter": 277.9313,
        "meta_mean_anomaly": 82.0737,
        "meta_ephemeris_type": 0,
        "meta_classification_type": "U",
        "meta_norad_cat_id": 66917,
        "meta_element_set_no": 999,
        "meta_rev_at_epoch": 61,
        "meta_bstar": -1.110323e-06,
        "meta_mean_motion_dot": -1.54e-06,
        "meta_mean_motion_ddot": 0,
        "tle_line1": "1 66917U 25285C   25344.63945947 -.00000154  00000+0 -11103-5 0  9998",
        "tle_line2": "2 66917  50.0009 125.8355 0007538 277.9313  82.0737 14.05578852   618"
      },
      "geometry": {
        "type": "Point",
        "coordinates": [
          27.106147889205857,
          -49.731153482004665
        ]
      }
    },
    {
      "type": "Feature",
      "properties": {
        "norad_id": 66918,
        "name": "HULIANWANG DIGUI-108",
        "group": "last-30-days",
        "lat": -49.8973910283376,
        "lon": 30.198175685284394,
        "alt_km": 873.9304263502072,
        "timestamp": "2025-12-10T21:43:20.863957+00:00",
        "meta_object_name": "HULIANWANG DIGUI-108",
        "meta_object_id": "2025-285D",
        "meta_epoch": "2025-12-10T15:20:17.494368",
        "meta_mean_motion": 14.05703412,
        "meta_eccentricity": 0.00064659,
        "meta_inclination": 50.0042,
        "meta_ra_of_asc_node": 125.8356,
        "meta_arg_of_pericenter": 272.9836,
        "meta_mean_anomaly": 87.0329,
        "meta_ephemeris_type": 0,
        "meta_classification_type": "U",
        "meta_norad_cat_id": 66918,
        "meta_element_set_no": 999,
        "meta_rev_at_epoch": 61,
        "meta_bstar": 6.96403e-06,
        "meta_mean_motion_dot": -1.41e-06,
        "meta_mean_motion_ddot": 0,
        "tle_line1": "1 66918U 25285D   25344.63909137 -.00000141  00000+0  69640-5 0  9994",
        "tle_line2": "2 66918  50.0042 125.8356 0006465 272.9836  87.0329 14.05703412   614"
      },
      "geometry": {
        "type": "Point",
        "coordinates": [
          30.198175685284394,
          -49.8973910283376
        ]
      }
    },
    {
      "type": "Feature",
      "properties": {
        "norad_id": 66919,
        "name": "HULIANWANG DIGUI-109",
        "group": "last-30-days",
        "lat": -49.913589309165104,
        "lon": 30.592337754596244,
        "alt_km": 873.1214423052415,
        "timestamp": "2025-12-10T21:43:20.863968+00:00",
        "meta_object_name": "HULIANWANG DIGUI-109",
        "meta_object_id": "2025-285E",
        "meta_epoch": "2025-12-10T15:20:12.801120",
        "meta_mean_motion": 14.05714535,
        "meta_eccentricity": 0.00078687,
        "meta_inclination": 50.0057,
        "meta_ra_of_asc_node": 125.8382,
        "meta_arg_of_pericenter": 284.4277,
        "meta_mean_anomaly": 75.5755,
        "meta_ephemeris_type": 0,
        "meta_classification_type": "U",
        "meta_norad_cat_id": 66919,
        "meta_element_set_no": 999,
        "meta_rev_at_epoch": 61,
        "meta_bstar": -3.76756e-06,
        "meta_mean_motion_dot": -1.58e-06,
        "meta_mean_motion_ddot": 0,
        "tle_line1": "1 66919U 25285E   25344.63903705 -.00000158  00000+0 -37676-5 0  9993",
        "tle_line2": "2 66919  50.0057 125.8382 0007868 284.4277  75.5755 14.05714535   618"
      },
      "geometry": {
        "type": "Point",
        "coordinates": [
          30.592337754596244,
          -49.913589309165104
        ]
      }
    },
    {
      "type": "Feature",
      "properties": {
        "norad_id": 66920,
        "name": "HULIANWANG DIGUI-110",
        "group": "last-30-days",
        "lat": -49.98945282988354,
        "lon": 33.938765613396534,
        "alt_km": 873.9699571693891,
        "timestamp": "2025-12-10T21:43:20.863978+00:00",
        "meta_object_name": "HULIANWANG DIGUI-110",
        "meta_object_id": "2025-285F",
        "meta_epoch": "2025-12-10T17:02:00.436992",
        "meta_mean_motion": 14.05850313,
        "meta_eccentricity": 0.0005821,
        "meta_inclination": 50.01,
        "meta_ra_of_asc_node": 125.549,
        "meta_arg_of_pericenter": 281.7881,
        "meta_mean_anomaly": 78.2371,
        "meta_ephemeris_type": 0,
        "meta_classification_type": "U",
        "meta_norad_cat_id": 66920,
        "meta_element_set_no": 999,
        "meta_rev_at_epoch": 62,
        "meta_bstar": 0.0002287,
        "meta_mean_motion_dot": 2.24e-06,
        "meta_mean_motion_ddot": 0,
        "tle_line1": "1 66920U 25285F   25344.70972728  .00000224  00000+0  22870-3 0  9994",
        "tle_line2": "2 66920  50.0100 125.5490 0005821 281.7881  78.2371 14.05850313   624"
      },
      "geometry": {
        "type": "Point",
        "coordinates": [
          33.938765613396534,
          -49.98945282988354
        ]
      }
    },
    {
      "type": "Feature",
      "properties": {
        "norad_id": 66921,
        "name": "HULIANWANG DIGUI-111",
        "group": "last-30-days",
        "lat": -49.993777214526,
        "lon": 34.78945044982301,
        "alt_km": 873.1845709552772,
        "timestamp": "2025-12-10T21:43:20.863987+00:00",
        "meta_object_name": "HULIANWANG DIGUI-111",
        "meta_object_id": "2025-285G",
        "meta_epoch": "2025-12-10T17:01:51.136032",
        "meta_mean_motion": 14.05883988,
        "meta_eccentricity": 0.0006973,
        "meta_inclination": 50.0115,
        "meta_ra_of_asc_node": 125.5503,
        "meta_arg_of_pericenter": 288.2922,
        "meta_mean_anomaly": 71.7224,
        "meta_ephemeris_type": 0,
        "meta_classification_type": "U",
        "meta_norad_cat_id": 66921,
        "meta_element_set_no": 999,
        "meta_rev_at_epoch": 62,
        "meta_bstar": 0.00024905,
        "meta_mean_motion_dot": 2.58e-06,
        "meta_mean_motion_ddot": 0,
        "tle_line1": "1 66921U 25285G   25344.70961963  .00000258  00000+0  24905-3 0  9992",
        "tle_line2": "2 66921  50.0115 125.5503 0006973 288.2922  71.7224 14.05883988   622"
      },
      "geometry": {
        "type": "Point",
        "coordinates": [
          34.78945044982301,
          -49.993777214526
        ]
      }
    },
    {
      "type": "Feature",
      "properties": {
        "norad_id": 66922,
        "name": "HULIANWANG DIGUI-112",
        "group": "last-30-days",
        "lat": -49.95367906925419,
        "lon": 37.65770320897993,
        "alt_km": 872.9540822338204,
        "timestamp": "2025-12-10T21:43:20.863997+00:00",
        "meta_object_name": "HULIANWANG DIGUI-112",
        "meta_object_id": "2025-285H",
        "meta_epoch": "2025-12-10T15:18:59.874336",
        "meta_mean_motion": 14.05998149,
        "meta_eccentricity": 0.00069366,
        "meta_inclination": 50.0079,
        "meta_ra_of_asc_node": 125.8353,
        "meta_arg_of_pericenter": 294.2613,
        "meta_mean_anomaly": 65.7568,
        "meta_ephemeris_type": 0,
        "meta_classification_type": "U",
        "meta_norad_cat_id": 66922,
        "meta_element_set_no": 999,
        "meta_rev_at_epoch": 61,
        "meta_bstar": -1.870944e-06,
        "meta_mean_motion_dot": -1.55e-06,
        "meta_mean_motion_ddot": 0,
        "tle_line1": "1 66922U 25285H   25344.63819299 -.00000155  00000+0 -18709-5 0  9994",
        "tle_line2": "2 66922  50.0079 125.8353 0006936 294.2613  65.7568 14.05998149   610"
      },
      "geometry": {
        "type": "Point",
        "coordinates": [
          37.65770320897993,
          -49.95367906925419
        ]
      }
    },
    {
      "type": "Feature",
      "properties": {
        "norad_id": 66923,
        "name": "HULIANWANG DIGUI-113",
        "group": "last-30-days",
        "lat": -49.904623209013,
        "lon": 39.194317904576636,
        "alt_km": 873.6432544621739,
        "timestamp": "2025-12-10T21:43:20.864007+00:00",
        "meta_object_name": "HULIANWANG DIGUI-113",
        "meta_object_id": "2025-285J",
        "meta_epoch": "2025-12-10T15:18:44.344800",
        "meta_mean_motion": 14.06055236,
        "meta_eccentricity": 0.00053881,
        "meta_inclination": 50.0076,
        "meta_ra_of_asc_node": 125.8351,
        "meta_arg_of_pericenter": 289.1569,
        "meta_mean_anomaly": 70.8753,
        "meta_ephemeris_type": 0,
        "meta_classification_type": "U",
        "meta_norad_cat_id": 66923,
        "meta_element_set_no": 999,
        "meta_rev_at_epoch": 61,
        "meta_bstar": 0.00020757938,
        "meta_mean_motion_dot": 1.9e-06,
        "meta_mean_motion_ddot": 0,
        "tle_line1": "1 66923U 25285J   25344.63801325  .00000190  00000+0  20758-3 0  9998",
        "tle_line2": "2 66923  50.0076 125.8351 0005388 289.1569  70.8753 14.06055236   614"
      },
      "geometry": {
        "type": "Point",
        "coordinates": [
          39.194317904576636,
          -49.904623209013
        ]
      }
    }
  ]
}